[Satellite]
VERSION=1.1
NAME=ATHENA-FIDUS
NICKNAME=ATHENA-FIDUS
TLE1=1 39509U 14006B   17186.10813547  .00000149  00000-0  00000-0 0  9993
TLE2=2 39509   0.0140 332.2205 0001494 140.0407 247.7472  1.00273528 12727
